352P/Skiff,e,20.9976,28.0729,309.3356,6.656964,0.0573839,0.61560746,178.8836,12/29.0/2025,2000,g 11.5,4.0
# From MPEC 2025-W75
353P/McNaught,e,28.4102,121.4571,230.5302,4.170423,0.1157268,0.46966082,338.6590,12/29.0/2025,2000,g 14.5,4.0
# From MPEC 2025-W75
354P/LINEAR,e,5.2511,320.0556,133.0058,2.290211,0.2843746,0.12445650,229.3391,12/29.0/2025,2000,g 15.5,4.0
# From MPEC 2025-W75
355P/LINEAR-NEAT,e,11.0461,51.4215,336.2459,3.466523,0.1527084,0.50786959,97.2542,12/29.0/2025,2000,g 15.5,2.0
# From MPEC 2025-W75
356P/WISE,e,9.6400,160.7448,226.2910,4.150903,0.1165441,0.35569001,340.7194,12/29.0/2025,2000,g 14.0,4.0
# From MPEC 2025-W75
357P/Hill,e,6.3134,44.5349,1.5544,4.454356,0.1048399,0.43588874,289.7748,12/29.0/2025,2000,g 15.5,4.0
# From MPEC 2025-W75
358P/PANSTARRS,e,11.0667,85.6656,299.2964,3.145395,0.1766816,0.23941761,137.9374,12/29.0/2025,2000,g 18.0,4.0
# From MPEC 2025-W75
359P/LONEOS,e,10.2590,149.6898,200.3010,4.643125,0.0985119,0.32297740,300.5592,12/29.0/2025,2000,g 13.5,4.0
# From MPEC 2025-W75
360P/WISE,e,24.1146,2.0596,354.4108,3.699962,0.1384867,0.49969031,62.4674,12/29.0/2025,2000,g 19.5,6.0
# From MPEC 2025-W75
361P/Spacewatch,e,13.8955,203.2103,219.1677,4.932737,0.0899647,0.43940714,245.6515,12/29.0/2025,2000,g 12.0,4.0
# From MPEC 2025-W75
363P/Lemmon,e,5.3938,146.7512,340.7922,3.575705,0.1457678,0.51861563,59.8719,12/29.0/2025,2000,g 17.5,4.0
# From MPEC 2025-W75
364P/PANSTARRS,e,11.8324,45.6739,212.9664,2.903552,0.1992093,0.71603207,191.7759,12/29.0/2025,2000,g 17.0,2.0
# From MPEC 2025-W75
365P/PANSTARRS,e,9.8446,86.2989,67.7669,3.156315,0.1757654,0.58181843,142.6041,12/29.0/2025,2000,g 17.0,4.0
# From MPEC 2025-W75
366P/Spacewatch,e,8.8560,70.7577,152.9348,3.500340,0.1505007,0.34869084,49.9908,12/29.0/2025,2000,g 15.0,4.0
# From MPEC 2025-W75
367P/Catalina,e,8.4580,58.7095,172.6082,3.511544,0.1497810,0.28019505,52.6552,12/29.0/2025,2000,g 17.5,2.0
# From MPEC 2025-W75
368P/NEAT,e,15.4868,257.7819,119.0576,5.536504,0.0756573,0.62523746,201.4529,12/29.0/2025,2000,g 14.0,4.0
# From MPEC 2025-W75
369P/Hill,e,10.3203,47.2678,13.2707,4.377951,0.1075964,0.55581078,282.5183,12/29.0/2025,2000,g 15.0,4.0
# From MPEC 2025-W75
370P/NEAT,e,19.4188,55.0669,356.8248,6.441857,0.0602820,0.61481431,166.1665,12/29.0/2025,2000,g 13.0,4.0
# From MPEC 2025-W75
371P/LINEAR-Skiff,e,17.3881,67.2241,308.6194,4.180550,0.1153066,0.47640859,304.2947,12/29.0/2025,2000,g 16.0,4.0
# From MPEC 2025-W75
372P/McNaught,e,9.4988,325.7600,27.6656,4.513861,0.1027737,0.15102905,269.8846,12/29.0/2025,2000,g 13.5,4.0
# From MPEC 2025-W75
373P/Rinner,e,13.7724,231.9485,221.1528,3.796152,0.1332566,0.39382945,326.6832,12/29.0/2025,2000,g 14.5,4.0
# From MPEC 2025-W75
374P/Larson,e,10.7555,7.8326,51.6347,4.971536,0.0889136,0.46344149,225.8399,12/29.0/2025,2000,g 14.0,4.0
# From MPEC 2025-W75
375P/Hill,e,17.3802,359.8005,119.4966,5.544928,0.0754849,0.66039735,193.3348,12/29.0/2025,2000,g 16.0,4.0
# From MPEC 2025-W75
376P/LONEOS,e,1.1662,312.8525,285.3013,5.753920,0.0714099,0.51392129,164.2158,12/29.0/2025,2000,g 12.5,4.0
# From MPEC 2025-W75
377P/Scotti,e,9.0430,225.8398,354.9770,6.693966,0.0569087,0.25179540,113.6830,12/29.0/2025,2000,g  9.5,4.0
# From MPEC 2025-YF1
378P/McNaught,e,19.1586,93.7923,193.2522,6.285737,0.0625417,0.46283367,119.5610,12/29.0/2025,2000,g 12.0,4.0
# From MPEC 2025-W75
379P/Spacewatch,e,12.4298,183.5094,31.6066,3.483990,0.1515614,0.34998903,351.5327,12/29.0/2025,2000,g 15.0,4.0
# From MPEC 2025-W75
380P/PANSTARRS,e,8.0410,127.6385,87.4110,4.452782,0.1048955,0.33281251,260.0760,12/29.0/2025,2000,g 12.5,4.0
# From MPEC 2025-W75
381P/LINEAR-Spacewatch,e,28.3241,173.8317,173.3371,7.145219,0.0516037,0.68022448,118.0678,12/29.0/2025,2000,g 17.5,2.0
# From MPEC 2025-W75
382P/Larson,e,8.3034,169.4547,162.8229,5.884888,0.0690394,0.26220018,105.5995,12/29.0/2025,2000,g  8.0,4.0
# From MPEC 2025-W75
383P/Christensen,e,12.3204,207.8197,133.7417,3.549561,0.1473812,0.59841540,332.6460,12/29.0/2025,2000,g 18.0,4.0
# From MPEC 2025-W75
384P/Kowalski,e,7.2840,354.1875,37.6956,2.897077,0.1998776,0.61617992,93.1287,12/29.0/2025,2000,g 19.5,4.0
# From MPEC 2025-W75
385P/Hill,e,16.8165,356.9881,44.5130,4.289281,0.1109500,0.40167093,254.5820,12/29.0/2025,2000,g 13.0,4.0
# From MPEC 2025-W75
386P/PANSTARRS,e,15.2488,134.9175,353.1300,4.048219,0.1210063,0.41767326,236.6040,12/29.0/2025,2000,g 14.5,4.0
# From MPEC 2025-W75
387P/Boattini,e,8.9425,259.2104,162.8888,4.797692,0.0937898,0.73681328,215.9687,12/29.0/2025,2000,g 15.0,4.0
# From MPEC 2025-W75
388P/Gibbs,e,23.8688,37.0055,42.3877,5.241001,0.0821453,0.61928001,192.7708,12/29.0/2025,2000,g 13.0,4.0
# From MPEC 2025-W75
389P/SidingSpring,e,160.0755,218.8286,249.2825,5.628816,0.0738038,0.70597304,161.6124,12/29.0/2025,2000,g 16.0,4.0
# From MPEC 2025-W75
390P/Gibbs,e,18.5146,152.1790,232.5895,5.819140,0.0702127,0.70630661,148.0249,12/29.0/2025,2000,g 12.0,4.0
# From MPEC 2025-W75
391P/Kowalski,e,21.2514,124.7078,186.8214,4.693157,0.0969408,0.11832726,276.3507,12/29.0/2025,2000,g  8.0,4.0
# From MPEC 2025-W75
392P/LINEAR,e,4.9253,24.7879,71.9990,6.143471,0.0647267,0.68390772,135.6402,12/29.0/2025,2000,g 14.5,4.0
# From MPEC 2025-W75
393P/Spacewatch-Hill,e,16.7802,36.4044,329.1427,4.802170,0.0936586,0.11873046,211.0497,12/29.0/2025,2000,g 11.0,4.0
# From MPEC 2025-W75
394P/PANSTARRS,e,8.5276,98.0871,54.5091,4.325074,0.1095756,0.36866653,243.0850,12/29.0/2025,2000,g 16.0,2.4
# From MPEC 2025-W75
395P/Catalina-NEAT,e,3.5667,220.9343,100.7952,7.203118,0.0509828,0.41039785,71.8140,12/29.0/2025,2000,g 10.0,4.0
# From MPEC 2025-W75
396P/Leonard,e,5.4441,136.6017,8.3243,6.798398,0.0556025,0.41726431,128.5985,12/29.0/2025,2000,g 12.0,4.0
# From MPEC 2025-W75
397P/Lemmon,e,10.9175,8.1634,14.6231,3.832666,0.1313568,0.40436961,265.1119,12/29.0/2025,2000,g 12.0,4.0
# From MPEC 2025-W75
398P/Boattini,e,11.0283,127.4070,320.2994,3.123616,0.1785326,0.58376651,325.9097,12/29.0/2025,2000,g 15.5,4.0
# From MPEC 2025-W75
399P/PANSTARRS,e,13.3134,207.1030,214.4753,3.793835,0.1333787,0.44713144,224.1031,12/29.0/2025,2000,g 14.0,4.0
# From MPEC 2025-W75
400P/PANSTARRS,e,10.9252,176.3313,238.9804,3.561865,0.1466182,0.40947842,261.1494,12/29.0/2025,2000,g 15.5,2.8
# From MPEC 2025-W75
401P/McNaught,e,12.8018,359.9118,309.3120,5.775731,0.0710058,0.57827389,157.5916,12/29.0/2025,2000,g 12.5,4.0
# From MPEC 2025-W75
402P/LINEAR,e,30.8289,123.0346,327.0671,7.044734,0.0527117,0.43992396,77.6845,12/29.0/2025,2000,g  8.0,4.0
# From MPEC 2025-W75
403P/Catalina,e,12.3135,163.7127,277.8426,5.433709,0.0778143,0.50410593,150.0202,12/29.0/2025,2000,g 12.0,4.0
# From MPEC 2025-W75
404P/Bressi,e,9.8038,260.0351,168.8318,4.716111,0.0962339,0.12380417,76.0978,12/29.0/2025,2000,g 10.0,4.0
# From MPEC 2025-W75
405P/Lemmon,e,9.3741,3.2039,112.3105,3.603185,0.1441034,0.69029057,263.5135,12/29.0/2025,2000,g 17.5,4.0
# From MPEC 2025-W75
406P/Gibbs,e,1.2100,11.4960,352.4346,3.580055,0.1455022,0.54083956,280.9937,12/29.0/2025,2000,g 17.0,4.0
# From MPEC 2025-W75
407P/PANSTARRS-Fuls,e,4.8728,80.2405,92.9758,3.495388,0.1508207,0.37539680,328.5674,12/29.0/2025,2000,g 14.0,4.0
# From MPEC 2025-W75
408P/Novichonok-Gerke,e,19.3480,189.4519,226.7354,4.746914,0.0952987,0.26817046,112.4547,12/29.0/2025,2000,g 11.0,4.0
# From MPEC 2025-W75
409P/LONEOS-Hill,e,17.1550,143.6393,15.0398,6.032492,0.0665210,0.71043773,119.3964,12/29.0/2025,2000,g 14.0,4.0
# From MPEC 2025-W75
410P/NEAT-LINEAR,e,9.3888,139.8925,313.3599,6.656581,0.0573888,0.51162522,94.5815,12/29.0/2025,2000,g 12.5,4.0
# From MPEC 2025-W75
411P/Christensen,e,12.3870,77.6472,46.5894,5.812152,0.0703394,0.58192784,126.4531,12/29.0/2025,2000,g 13.5,4.0
# From MPEC 2025-W75
412P/WISE,e,8.9282,0.8275,155.8262,3.113094,0.1794386,0.47912850,332.6242,12/29.0/2025,2000,g 17.0,4.0
# From MPEC 2025-W75
413P/Larson,e,15.9521,38.9386,186.6836,3.737169,0.1364237,0.41743901,222.3322,12/29.0/2025,2000,g 14.0,4.0
# From MPEC 2025-W75
414P/STEREO,e,23.4067,257.8151,210.7113,2.792345,0.2112275,0.81228329,19.7891,12/29.0/2025,2000,g 19.0,4.0
# From MPEC 2025-W75
415P/Tenagra,e,31.8153,160.2575,345.9243,4.107331,0.1184035,0.19573507,210.4914,12/29.0/2025,2000,g 12.0,4.0
# From MPEC 2025-W75
416P/Scotti,e,3.3642,355.7227,134.4820,4.005774,0.1229347,0.45565073,218.2745,12/29.0/2025,2000,g 15.5,4.0
# From MPEC 2025-W75
417P/NEOWISE,e,11.3500,95.2728,142.1066,3.385435,0.1582276,0.53672968,279.6825,12/29.0/2025,2000,g 16.5,4.0
# From MPEC 2025-W75
418P/LINEAR,e,5.7865,277.2609,307.6573,5.087880,0.0858813,0.66416910,131.7908,12/29.0/2025,2000,g 13.0,4.0
# From MPEC 2025-W75
419P/PANSTARRS,e,2.7916,40.3745,187.7385,3.537838,0.1481144,0.27252647,226.7261,12/29.0/2025,2000,g 12.5,4.0
# From MPEC 2025-W75
420P/Hill,e,14.5238,173.3627,156.3995,5.472926,0.0769794,0.49490289,101.7985,12/29.0/2025,2000,g 11.5,4.0
# From MPEC 2025-W75
421P/McNaught,e,10.0747,55.3129,259.8394,5.073768,0.0862399,0.67439500,155.3545,12/29.0/2025,2000,g 14.0,4.0
# From MPEC 2025-W75
422P/Christensen,e,39.5799,36.0087,304.7309,6.271941,0.0627482,0.50540796,90.9220,12/29.0/2025,2000,g 11.0,4.0
# From MPEC 2025-W75
423P/Lemmon,e,8.3406,33.3001,81.1239,6.184840,0.0640784,0.12278956,99.4542,12/29.0/2025,2000,g  8.0,4.0
# From MPEC 2025-W75
424P/LaSagra,e,8.6821,51.1921,312.5754,4.421614,0.1060066,0.69009698,161.1969,12/29.0/2025,2000,g 17.0,4.0
# From MPEC 2025-W75
425P/Kowalski,e,16.4084,210.0920,201.0215,6.353766,0.0615400,0.54344056,96.0210,12/29.0/2025,2000,g 12.0,4.0
# From MPEC 2025-W75
426P/PANSTARRS,e,17.7840,280.3958,118.3889,3.186100,0.1733066,0.16088331,145.7272,12/29.0/2025,2000,g 13.5,4.0
# From MPEC 2025-X35
427P/ATLAS,e,11.8650,252.3260,99.6226,3.163580,0.1751603,0.31518728,178.1110,12/29.0/2025,2000,g 14.0,4.0
# From MPEC 2025-W75
428P/Gibbs,e,8.5025,299.3062,36.8783,3.489197,0.1512223,0.51808575,255.8141,12/29.0/2025,2000,g 15.0,4.0
# From MPEC 2025-W75
429P/LINEAR-Hill,e,7.5140,322.0001,75.7516,3.556415,0.1469554,0.49059707,214.1223,12/29.0/2025,2000,g 15.5,4.0
# From MPEC 2025-W75
